{
    "links": {
        "self": "http://www.neowsapp.com/rest/v1/neo/3825167?api_key=iIulBulltgU6a56xZRHN4H3l9WmuAYTsLGpBGhQ2"
    },
    "id": "3825167",
    "neo_reference_id": "3825167",
    "name": "(2018 LF4)",
    "designation": "2018 LF4",
    "nasa_jpl_url": "http://ssd.jpl.nasa.gov/sbdb.cgi?sstr=3825167",
    "absolute_magnitude_h": 24.2,
    "estimated_diameter": {
        "kilometers": {
            "estimated_diameter_min": 0.0384197891,
            "estimated_diameter_max": 0.0859092601
        },
        "meters": {
            "estimated_diameter_min": 38.4197891064,
            "estimated_diameter_max": 85.9092601232
        },
        "miles": {
            "estimated_diameter_min": 0.0238729428,
            "estimated_diameter_max": 0.0533815229
        },
        "feet": {
            "estimated_diameter_min": 126.0491808919,
            "estimated_diameter_max": 281.8545369825
        }
    },
    "is_potentially_hazardous_asteroid": false,
    "close_approach_data": [
        {
            "close_approach_date": "2018-06-02",
            "close_approach_date_full": "2018-Jun-02 10:25",
            "epoch_date_close_approach": 1527935100000,
            "relative_velocity": {
                "kilometers_per_second": "10.331512595",
                "kilometers_per_hour": "37193.4453418981",
                "miles_per_hour": "23110.5605236922"
            },
            "miss_distance": {
                "astronomical": "0.1079875076",
                "lunar": "42.0071404564",
                "kilometers": "16154701.123568812",
                "miles": "10038065.8068891256"
            },
            "orbiting_body": "Earth"
        }
    ],
    "orbital_data": {
        "orbit_id": "2",
        "orbit_determination_date": "2018-07-10 06:26:12",
        "first_observation_date": "2018-06-11",
        "last_observation_date": "2018-07-09",
        "data_arc_in_days": 28,
        "observations_used": 17,
        "orbit_uncertainty": "8",
        "minimum_orbit_intersection": ".0438691",
        "jupiter_tisserand_invariant": "3.227",
        "epoch_osculation": "2458283.5",
        "eccentricity": ".5725884119944508",
        "semi_major_axis": "2.461733611561861",
        "inclination": "9.081534081336326",
        "ascending_node_longitude": "237.8523298213662",
        "orbital_period": "1410.782324928062",
        "perihelion_distance": "1.052173472164291",
        "perihelion_argument": "351.1373355590504",
        "aphelion_distance": "3.871293750959431",
        "perihelion_time": "2458256.143660319073",
        "mean_anomaly": "6.980724177725929",
        "mean_motion": ".2551775661198172",
        "equinox": "J2000",
        "orbit_class": {
            "orbit_class_type": "AMO",
            "orbit_class_description": "Near-Earth asteroid orbits similar to that of 1221 Amor",
            "orbit_class_range": "1.017 AU < q (perihelion) < 1.3 AU"
        }
    },
    "is_sentry_object": false
}